GLOBALSTAR M035         
1 25851U 99037A   25278.19513853 -.00000014  00000+0  18598-2 0  9996
2 25851  51.9929 169.6374 0013407 155.9858  11.5272 11.04539929108415
GLOBALSTAR M032         
1 25852U 99037B   25278.19995808 -.00000075  00000+0 -26400-3 0  9991
2 25852  51.9992 347.2368 0012169 352.8723   7.1902 11.19063134147102
GLOBALSTAR M051         
1 25853U 99037C   25277.97055196 -.00000073  00000+0 -30498-4 0  9995
2 25853  51.9772 136.0525 0001424  67.4296 292.6665 11.42205277144931
GLOBALSTAR M030         
1 25854U 99037D   25278.15561376 -.00000075  00000+0  42549-5 0  9991
2 25854  51.9879 294.7209 0003015 244.1817 115.8688 11.55115017162759
GLOBALSTAR M048         
1 25872U 99041A   25277.68354383 -.00000061  00000+0  23349-3 0  9991
2 25872  51.9362  76.0087 0013493  18.5835 354.7219 11.33859458137403
GLOBALSTAR M026         
1 25873U 99041B   25278.04902801 -.00000070  00000+0 -22244-3 0  9991
2 25873  52.0006 286.7657 0001822  92.4001 299.7630 11.06852642160659
GLOBALSTAR M043         
1 25874U 99041C   25278.22409203 -.00000068  00000+0 -34180-5 0  9991
2 25874  51.9386 186.7577 0013428 135.6724  34.5209 11.25693954135262
GLOBALSTAR M028         
1 25875U 99041D   25278.12832288 -.00000092  00000+0  49556-4 0  9992
2 25875  51.9619 225.2387 0063245 310.6679  48.8696 12.50589069203934
